ONEWEB-0517             
1 54135U 22138Y   23351.82319957 -.00004856  00000+0 -12165-1 0  9992
2 54135  87.9191 126.5762 0001136 116.2424 243.8826 13.19750384 57360
ONEWEB-0518             
1 54136U 22138Z   23351.84216399  .00000022  00000+0  22148-4 0  9995
2 54136  87.9198 126.5750 0001440 101.6011 258.5284 13.19724522 57369
ONEWEB-0519             
1 54137U 22138AA  23351.41253725  .00000155  00000+0  35551-3 0  9991
2 54137  87.9190 126.6553 0001056 108.6425 251.4822 13.19725452 56444
ONEWEB-0520             
1 54138U 22138AB  23351.44727567  .00000099  00000+0  21423-3 0  9995
2 54138  87.9189 126.6506 0001364 126.2393 233.8866 13.19727153 56434
ONEWEB-0521             
1 54139U 22138AC  23351.40463715  .00000183  00000+0  42560-3 0  9993
2 54139  87.9190 126.6549 0001449  88.3697 271.7601 13.19733459 56370
ONEWEB-0522             
1 54140U 22138AD  23351.38411998  .00000115  00000+0  25468-3 0  9991
2 54140  87.9189 126.6609 0001558 108.2614 251.8688 13.19725086 56415
ONEWEB-0523             
1 54141U 22138AE  23351.31266780  .00000161  00000+0  36464-3 0  9991
2 54141  87.9200  96.1561 0002553  88.7961 271.3465 13.20772909 58804
ONEWEB-0524             
1 54142U 22138AF  23351.83191983  .00000072  00000+0  14538-3 0  9990
2 54142  87.9233  96.0556 0002913 114.7136 245.4301 13.20772325 59745
